[Satellite]
VERSION=1.1
NAME=STARLINK-5131
NICKNAME=STARLINK-5131
TLE1=1 53996U 22125AJ  22296.91667824 -.00122191  00000+0 -87654-3 0  9998
TLE2=2 53996  53.2195   2.7364 0002634  16.3738 273.3666 15.73256743  1304
STATUS=0
